[{"OBJECT_NAME":"STARLINK-6358","OBJECT_ID":"2023-099BB","EPOCH":"2026-03-09T12:24:03.474432","MEAN_MOTION":15.0253894,"ECCENTRICITY":0.00014165,"INCLINATION":43.0015,"RA_OF_ASC_NODE":236.6135,"ARG_OF_PERICENTER":273.832,"MEAN_ANOMALY":86.236,"EPHEMERIS_TYPE":0,"CLASSIFICATION_TYPE":"U","NORAD_CAT_ID":57377,"ELEMENT_SET_NO":999,"REV_AT_EPOCH":14624,"BSTAR":-8.0851931e-5,"MEAN_MOTION_DOT":-1.296e-5,"MEAN_MOTION_DDOT":0},{"OBJECT_NAME":"SL-24 R\/B","OBJECT_ID":"2007-026B","EPOCH":"2026-03-09T22:40:02.756640","MEAN_MOTION":14.45860602,"ECCENTRICITY":0.0332074,"INCLINATION":97.4507,"RA_OF_ASC_NODE":51.0844,"ARG_OF_PERICENTER":307.0569,"MEAN_ANOMALY":107.0995,"EPHEMERIS_TYPE":0,"CLASSIFICATION_TYPE":"U","NORAD_CAT_ID":31699,"ELEMENT_SET_NO":999,"REV_AT_EPOCH":98518,"BSTAR":0.00024180062,"MEAN_MOTION_DOT":1.655e-5,"MEAN_MOTION_DDOT":0}]
